ICEYE-X72               
1 68504U 26067CS  26201.91668981  .00014286  00000+0  12339-2 0  9993
2 68504  97.7643 159.8476 0000930 162.5535 182.9096 14.97339438  5720
ICEYE-X78               
1 68995U 26100R   26201.27753168  .00000459  00000+0  50945-4 0  9990
2 68995  97.7326  98.1140 0003286  44.2235 315.9246 14.91817558 11635
ICEYE-X82               
1 68996U 26100S   26201.97169543  .00001361  00000+0  14163-3 0  9990
2 68996  97.7321  98.7354 0005526  49.5335 310.6365 14.91440509 11735
