{"fetched_at":"2026-07-21T07:06:56.588Z","source":"https://celestrak.org/NORAD/elements/gp.php?NAME=ICEYE&FORMAT=JSON","constellation":"iceye","records":[{"OBJECT_NAME":"ICEYE-X72","OBJECT_ID":"2026-067CS","EPOCH":"2026-07-20T22:00:01.999584","CLASSIFICATION_TYPE":"U","MEAN_MOTION":14.97339438,"ECCENTRICITY":0.00009307,"INCLINATION":97.7643,"RA_OF_ASC_NODE":159.8476,"ARG_OF_PERICENTER":162.5535,"MEAN_ANOMALY":182.9096,"EPHEMERIS_TYPE":0,"NORAD_CAT_ID":68504,"ELEMENT_SET_NO":999,"REV_AT_EPOCH":572,"BSTAR":0.0012338799,"MEAN_MOTION_DOT":0.00014286,"MEAN_MOTION_DDOT":0},{"OBJECT_NAME":"ICEYE-X78","OBJECT_ID":"2026-100R","EPOCH":"2026-07-20T06:39:38.737152","CLASSIFICATION_TYPE":"U","MEAN_MOTION":14.91817558,"ECCENTRICITY":0.00032861,"INCLINATION":97.7326,"RA_OF_ASC_NODE":98.114,"ARG_OF_PERICENTER":44.2235,"MEAN_ANOMALY":315.9246,"EPHEMERIS_TYPE":0,"NORAD_CAT_ID":68995,"ELEMENT_SET_NO":999,"REV_AT_EPOCH":1163,"BSTAR":0.000050944514,"MEAN_MOTION_DOT":0.00000459,"MEAN_MOTION_DDOT":0},{"OBJECT_NAME":"ICEYE-X82","OBJECT_ID":"2026-100S","EPOCH":"2026-07-20T23:19:14.485152","CLASSIFICATION_TYPE":"U","MEAN_MOTION":14.91440509,"ECCENTRICITY":0.00055266,"INCLINATION":97.7321,"RA_OF_ASC_NODE":98.7354,"ARG_OF_PERICENTER":49.5335,"MEAN_ANOMALY":310.6365,"EPHEMERIS_TYPE":0,"NORAD_CAT_ID":68996,"ELEMENT_SET_NO":999,"REV_AT_EPOCH":1173,"BSTAR":0.00014163382,"MEAN_MOTION_DOT":0.00001361,"MEAN_MOTION_DDOT":0}]}
